AGILA                   
1 62456U 24252C   26094.84812087 -.00000179  00000+0  00000+0 0  9993
2 62456   0.0287 146.9226 0001486 240.4316 263.2928  1.00278994  4423
NUVIEW BRAVO            
1 62457U 24252D   26095.16919711 -.00000214  00000+0  00000+0 0  9992
2 62457   0.0618 167.8640 0000826 263.9284  99.4832  1.00271749  3068
THURAYA-4               
1 62483U 25001A   26095.25461660  .00000140  00000+0  00000+0 0  9996
2 62483   0.0332  86.6775 0000538  79.1308 163.7118  1.00274319  3441
SHIJIAN-25 (SJ-25)      
1 62485U 25002A   26093.71008509 -.00000349  00000+0  00000+0 0  9999
2 62485   4.9379  61.5945 0050386 168.1452 345.1672  1.00280691  4614
TJS-14                  
1 62804U 25017A   26095.24950324  .00000116  00000+0  00000+0 0  9992
2 62804   0.9528 291.4056 0001630  76.1266 294.1776  1.00274172  4544
SPAINSAT NG I           
1 62852U 25021A   26095.21711404  .00000000  00000+0  00000+0 0  9993
2 62852   0.0164 211.4474 0000208 221.3652 227.8593  1.00271019  3257
QZS-6 (MICHIBIKI-6)     
1 62876U 25023A   26095.12753198 -.00000233  00000+0  00000+0 0  9996
2 62876   0.0340 279.5348 0002107 107.3337 302.9970  1.00274000  4222
ZHONGXING-10R           
1 63075U 25036A   26094.98655851 -.00000351  00000+0  00000+0 0  9993
2 63075   0.0695 256.1431 0001254 245.0090 157.8248  1.00274005  4229
TJS-15                  
1 63157U 25045A   26093.69955566 -.00000266  00000+0  00000+0 0  9992
2 63157   0.2303  84.4860 0006633 282.9335 170.7975  1.00269681  4016
TIANLIAN 2-04           
1 63361U 25062A   26095.12316836 -.00000139  00000+0  00000+0 0  9998
2 63361   4.5629 275.4533 0033549  11.0218  31.3218  1.00272123  3877
TJS-16                  
1 63397U 25064A   26093.71568290 -.00000106  00000+0  00000+0 0  9999
2 63397   0.9063  81.7352 0004991 271.8343 256.7076  1.00272090  3642
TJS-17                  
1 63524U 25073A   26093.71577431 -.00000071  00000+0  00000+0 0  9999
2 63524   0.8718  83.2010 0004030 267.2192 263.7959  1.00271682  3546
TIANLIAN 2-05           
1 63662U 25084A   26095.10728562  .00000120  00000+0  00000+0 0  9996
2 63662   4.6372 280.6411 0003544 104.8062 226.9364  1.00273683  3641
TJS-19                  
1 63924U 25097A   26093.72836493 -.00000281  00000+0  00000+0 0  9999
2 63924   3.4137 316.2641 0001950 343.2310 296.0232  1.00273599  3393
CHINASAT 3B             
1 64062U 25106A   26095.20764604 -.00000044  00000+0  00000+0 0  9990
2 64062   0.0406   5.2436 0001493  15.1092  55.2207  1.00272324  3325
SXM-10                  
1 64290U 25122A   26095.22281276 -.00000016  00000+0  00000+0 0  9991
2 64290   0.0018  92.6114 0002607 284.1583 140.8009  1.00272404  2959
CHINASAT 9C             
1 64470U 25132A   26095.12753198 -.00000246  00000+0  00000+0 0  9993
2 64470   0.0387  93.8453 0002828 281.0900 316.6164  1.00271451  3419
