[{"OBJECT_NAME":"AGILA","OBJECT_ID":"2024-252C","EPOCH":"2026-04-04T20:21:17.643168","MEAN_MOTION":1.00278994,"ECCENTRICITY":0.00014868,"INCLINATION":0.0287,"RA_OF_ASC_NODE":146.9226,"ARG_OF_PERICENTER":240.4316,"MEAN_ANOMALY":263.2928,"EPHEMERIS_TYPE":0,"CLASSIFICATION_TYPE":"U","NORAD_CAT_ID":62456,"ELEMENT_SET_NO":999,"REV_AT_EPOCH":442,"BSTAR":0,"MEAN_MOTION_DOT":-1.79e-6,"MEAN_MOTION_DDOT":0},{"OBJECT_NAME":"NUVIEW BRAVO","OBJECT_ID":"2024-252D","EPOCH":"2026-04-05T04:03:38.630304","MEAN_MOTION":1.00271749,"ECCENTRICITY":8.262e-5,"INCLINATION":0.0618,"RA_OF_ASC_NODE":167.864,"ARG_OF_PERICENTER":263.9284,"MEAN_ANOMALY":99.4832,"EPHEMERIS_TYPE":0,"CLASSIFICATION_TYPE":"U","NORAD_CAT_ID":62457,"ELEMENT_SET_NO":999,"REV_AT_EPOCH":306,"BSTAR":0,"MEAN_MOTION_DOT":-2.14e-6,"MEAN_MOTION_DDOT":0},{"OBJECT_NAME":"THURAYA-4","OBJECT_ID":"2025-001A","EPOCH":"2026-04-05T06:06:38.874240","MEAN_MOTION":1.00274319,"ECCENTRICITY":5.388e-5,"INCLINATION":0.0332,"RA_OF_ASC_NODE":86.6775,"ARG_OF_PERICENTER":79.1308,"MEAN_ANOMALY":163.7118,"EPHEMERIS_TYPE":0,"CLASSIFICATION_TYPE":"U","NORAD_CAT_ID":62483,"ELEMENT_SET_NO":999,"REV_AT_EPOCH":344,"BSTAR":0,"MEAN_MOTION_DOT":1.4e-6,"MEAN_MOTION_DDOT":0},{"OBJECT_NAME":"SHIJIAN-25 (SJ-25)","OBJECT_ID":"2025-002A","EPOCH":"2026-04-03T17:02:31.351776","MEAN_MOTION":1.00280691,"ECCENTRICITY":0.0050386,"INCLINATION":4.9379,"RA_OF_ASC_NODE":61.5945,"ARG_OF_PERICENTER":168.1452,"MEAN_ANOMALY":345.1672,"EPHEMERIS_TYPE":0,"CLASSIFICATION_TYPE":"U","NORAD_CAT_ID":62485,"ELEMENT_SET_NO":999,"REV_AT_EPOCH":461,"BSTAR":0,"MEAN_MOTION_DOT":-3.49e-6,"MEAN_MOTION_DDOT":0},{"OBJECT_NAME":"TJS-14","OBJECT_ID":"2025-017A","EPOCH":"2026-04-05T05:59:17.079936","MEAN_MOTION":1.00274172,"ECCENTRICITY":0.00016304,"INCLINATION":0.9528,"RA_OF_ASC_NODE":291.4056,"ARG_OF_PERICENTER":76.1266,"MEAN_ANOMALY":294.1776,"EPHEMERIS_TYPE":0,"CLASSIFICATION_TYPE":"U","NORAD_CAT_ID":62804,"ELEMENT_SET_NO":999,"REV_AT_EPOCH":454,"BSTAR":0,"MEAN_MOTION_DOT":1.16e-6,"MEAN_MOTION_DDOT":0},{"OBJECT_NAME":"SPAINSAT NG I","OBJECT_ID":"2025-021A","EPOCH":"2026-04-05T05:12:38.653056","MEAN_MOTION":1.00271019,"ECCENTRICITY":2.081e-5,"INCLINATION":0.0164,"RA_OF_ASC_NODE":211.4474,"ARG_OF_PERICENTER":221.3652,"MEAN_ANOMALY":227.8593,"EPHEMERIS_TYPE":0,"CLASSIFICATION_TYPE":"U","NORAD_CAT_ID":62852,"ELEMENT_SET_NO":999,"REV_AT_EPOCH":325,"BSTAR":0,"MEAN_MOTION_DOT":0,"MEAN_MOTION_DDOT":0},{"OBJECT_NAME":"QZS-6 (MICHIBIKI-6)","OBJECT_ID":"2025-023A","EPOCH":"2026-04-05T03:03:38.763072","MEAN_MOTION":1.00274,"ECCENTRICITY":0.00021078,"INCLINATION":0.034,"RA_OF_ASC_NODE":279.5348,"ARG_OF_PERICENTER":107.3337,"MEAN_ANOMALY":302.997,"EPHEMERIS_TYPE":0,"CLASSIFICATION_TYPE":"U","NORAD_CAT_ID":62876,"ELEMENT_SET_NO":999,"REV_AT_EPOCH":422,"BSTAR":0,"MEAN_MOTION_DOT":-2.33e-6,"MEAN_MOTION_DDOT":0},{"OBJECT_NAME":"ZHONGXING-10R","OBJECT_ID":"2025-036A","EPOCH":"2026-04-04T23:40:38.655264","MEAN_MOTION":1.00274005,"ECCENTRICITY":0.00012549,"INCLINATION":0.0695,"RA_OF_ASC_NODE":256.1431,"ARG_OF_PERICENTER":245.009,"MEAN_ANOMALY":157.8248,"EPHEMERIS_TYPE":0,"CLASSIFICATION_TYPE":"U","NORAD_CAT_ID":63075,"ELEMENT_SET_NO":999,"REV_AT_EPOCH":422,"BSTAR":0,"MEAN_MOTION_DOT":-3.51e-6,"MEAN_MOTION_DDOT":0},{"OBJECT_NAME":"TJS-15","OBJECT_ID":"2025-045A","EPOCH":"2026-04-03T16:47:21.609024","MEAN_MOTION":1.00269681,"ECCENTRICITY":0.0006633,"INCLINATION":0.2303,"RA_OF_ASC_NODE":84.486,"ARG_OF_PERICENTER":282.9335,"MEAN_ANOMALY":170.7975,"EPHEMERIS_TYPE":0,"CLASSIFICATION_TYPE":"U","NORAD_CAT_ID":63157,"ELEMENT_SET_NO":999,"REV_AT_EPOCH":401,"BSTAR":0,"MEAN_MOTION_DOT":-2.66e-6,"MEAN_MOTION_DDOT":0},{"OBJECT_NAME":"TIANLIAN 2-04","OBJECT_ID":"2025-062A","EPOCH":"2026-04-05T02:57:21.746304","MEAN_MOTION":1.00272123,"ECCENTRICITY":0.0033549,"INCLINATION":4.5629,"RA_OF_ASC_NODE":275.4533,"ARG_OF_PERICENTER":11.0218,"MEAN_ANOMALY":31.3218,"EPHEMERIS_TYPE":0,"CLASSIFICATION_TYPE":"U","NORAD_CAT_ID":63361,"ELEMENT_SET_NO":999,"REV_AT_EPOCH":387,"BSTAR":0,"MEAN_MOTION_DOT":-1.39e-6,"MEAN_MOTION_DDOT":0},{"OBJECT_NAME":"TJS-16","OBJECT_ID":"2025-064A","EPOCH":"2026-04-03T17:10:35.002560","MEAN_MOTION":1.0027209,"ECCENTRICITY":0.0004991,"INCLINATION":0.9063,"RA_OF_ASC_NODE":81.7352,"ARG_OF_PERICENTER":271.8343,"MEAN_ANOMALY":256.7076,"EPHEMERIS_TYPE":0,"CLASSIFICATION_TYPE":"U","NORAD_CAT_ID":63397,"ELEMENT_SET_NO":999,"REV_AT_EPOCH":364,"BSTAR":0,"MEAN_MOTION_DOT":-1.06e-6,"MEAN_MOTION_DDOT":0},{"OBJECT_NAME":"TJS-17","OBJECT_ID":"2025-073A","EPOCH":"2026-04-03T17:10:42.900384","MEAN_MOTION":1.00271682,"ECCENTRICITY":0.000403,"INCLINATION":0.8718,"RA_OF_ASC_NODE":83.201,"ARG_OF_PERICENTER":267.2192,"MEAN_ANOMALY":263.7959,"EPHEMERIS_TYPE":0,"CLASSIFICATION_TYPE":"U","NORAD_CAT_ID":63524,"ELEMENT_SET_NO":999,"REV_AT_EPOCH":354,"BSTAR":0,"MEAN_MOTION_DOT":-7.1e-7,"MEAN_MOTION_DDOT":0},{"OBJECT_NAME":"TIANLIAN 2-05","OBJECT_ID":"2025-084A","EPOCH":"2026-04-05T02:34:29.477568","MEAN_MOTION":1.00273683,"ECCENTRICITY":0.00035441,"INCLINATION":4.6372,"RA_OF_ASC_NODE":280.6411,"ARG_OF_PERICENTER":104.8062,"MEAN_ANOMALY":226.9364,"EPHEMERIS_TYPE":0,"CLASSIFICATION_TYPE":"U","NORAD_CAT_ID":63662,"ELEMENT_SET_NO":999,"REV_AT_EPOCH":364,"BSTAR":0,"MEAN_MOTION_DOT":1.2e-6,"MEAN_MOTION_DDOT":0},{"OBJECT_NAME":"TJS-19","OBJECT_ID":"2025-097A","EPOCH":"2026-04-03T17:28:50.729952","MEAN_MOTION":1.00273599,"ECCENTRICITY":0.000195,"INCLINATION":3.4137,"RA_OF_ASC_NODE":316.2641,"ARG_OF_PERICENTER":343.231,"MEAN_ANOMALY":296.0232,"EPHEMERIS_TYPE":0,"CLASSIFICATION_TYPE":"U","NORAD_CAT_ID":63924,"ELEMENT_SET_NO":999,"REV_AT_EPOCH":339,"BSTAR":0,"MEAN_MOTION_DOT":-2.81e-6,"MEAN_MOTION_DDOT":0},{"OBJECT_NAME":"CHINASAT 3B","OBJECT_ID":"2025-106A","EPOCH":"2026-04-05T04:59:00.617856","MEAN_MOTION":1.00272324,"ECCENTRICITY":0.00014931,"INCLINATION":0.0406,"RA_OF_ASC_NODE":5.2436,"ARG_OF_PERICENTER":15.1092,"MEAN_ANOMALY":55.2207,"EPHEMERIS_TYPE":0,"CLASSIFICATION_TYPE":"U","NORAD_CAT_ID":64062,"ELEMENT_SET_NO":999,"REV_AT_EPOCH":332,"BSTAR":0,"MEAN_MOTION_DOT":-4.4e-7,"MEAN_MOTION_DDOT":0},{"OBJECT_NAME":"SXM-10","OBJECT_ID":"2025-122A","EPOCH":"2026-04-05T05:20:51.022464","MEAN_MOTION":1.00272404,"ECCENTRICITY":0.00026071,"INCLINATION":0.0018,"RA_OF_ASC_NODE":92.6114,"ARG_OF_PERICENTER":284.1583,"MEAN_ANOMALY":140.8009,"EPHEMERIS_TYPE":0,"CLASSIFICATION_TYPE":"U","NORAD_CAT_ID":64290,"ELEMENT_SET_NO":999,"REV_AT_EPOCH":295,"BSTAR":0,"MEAN_MOTION_DOT":-1.6e-7,"MEAN_MOTION_DDOT":0},{"OBJECT_NAME":"CHINASAT 9C","OBJECT_ID":"2025-132A","EPOCH":"2026-04-05T03:03:38.763072","MEAN_MOTION":1.00271451,"ECCENTRICITY":0.00028283,"INCLINATION":0.0387,"RA_OF_ASC_NODE":93.8453,"ARG_OF_PERICENTER":281.09,"MEAN_ANOMALY":316.6164,"EPHEMERIS_TYPE":0,"CLASSIFICATION_TYPE":"U","NORAD_CAT_ID":64470,"ELEMENT_SET_NO":999,"REV_AT_EPOCH":341,"BSTAR":0,"MEAN_MOTION_DOT":-2.46e-6,"MEAN_MOTION_DDOT":0}]
